CUTE-1 (CO-55)          
1 27844U 03031E   24123.53493526  .00000535  00000+0  25590-3 0  9997
2 27844  98.6786 131.2007 0008462 278.2226  81.7992 14.23199937 81322
CUBESAT XI-IV (CO-57)   
1 27848U 03031J   24123.24026545  .00000486  00000+0  23664-3 0  9997
2 27848  98.6815 131.1804 0008479 297.4968  62.5347 14.22650267 81055
CUBESAT XI-V            
1 28895U 05043F   24123.35594599  .00002472  00000+0  44484-3 0  9996
2 28895  98.1944 259.1448 0016721 139.8218 220.4226 14.67420689987965
CUTE-1.7+APD II (CO-65) 
1 32785U 08021C   24122.87899862  .00004784  00000+0  43020-3 0  9998
2 32785  97.7517  88.6269 0012945 116.0227 244.2329 14.96070805868628
AAUSAT-II               
1 32788U 08021F   24123.18219601  .00018722  00000+0  10015-2 0  9997
2 32788  97.5932 103.3724 0004685   6.0119 354.1168 15.15099114871454
SEEDS II (CO-66)        
1 32791U 08021J   24123.14152317  .00010343  00000+0  77806-3 0  9990
2 32791  97.6862  94.6146 0007059  99.4347 260.7676 15.02713750869681
SWISSCUBE               
1 35932U 09051B   24122.46023332  .00001450  00000+0  32002-3 0  9990
2 35932  98.4773   4.8310 0008615 100.2652 259.9518 14.58871886775783
BEESAT-1                
1 35933U 09051C   24123.21135810  .00001409  00000+0  31281-3 0  9992
2 35933  98.4700   6.5657 0006818 108.0494 252.1448 14.58633998776003
ITUPSAT1                
1 35935U 09051E   24122.91868879  .00001304  00000+0  29687-3 0  9999
2 35935  98.4799   6.0763 0009012 115.7551 244.4578 14.57603585775559
TISAT 1                 
1 36799U 10035E   24123.18001780  .00008359  00000+0  65108-3 0  9997
2 36799  98.0910  10.6448 0005937  31.7925 328.3655 15.01478081750354
M-CUBED & EXP-1 PRIME   
1 37855U 11061F   24122.76335635  .00158787  00000+0  14565-2 0  9994
2 37855 101.6884 278.8794 0048085 124.5067 236.0732 15.65703105685749
AEROCUBE 4.5A           
1 38767U 12048K   24123.19234373  .00015554  00000+0  88335-3 0  9999
2 38767  64.6598 101.8936 0106361  34.5373 326.2595 15.08354021253529
AEROCUBE 4.5B           
1 38768U 12048L   24123.09860453  .00031576  00000+0  12431-2 0  9998
2 38768  64.6576  30.8595 0086893  23.1623 337.3382 15.22005303254404
STRAND-1                
1 39090U 13009E   24123.50023181  .00000503  00000+0  18751-3 0  9998
2 39090  98.3827 313.0458 0009520  35.9643 324.2182 14.36011938585703
BRITE-AUSTRIA           
1 39091U 13009F   24123.11952975  .00000364  00000+0  14055-3 0  9996
2 39091  98.3868 311.9430 0011141  42.4857 317.7189 14.35764996585665
NEE-01 PEGASO           
1 39151U 13018B   24123.54685811  .00003848  00000+0  45302-3 0  9991
2 39151  98.0296 240.2398 0015251 184.2865 175.8222 14.85337109595200
ESTCUBE 1               
1 39161U 13021C   24123.45462270  .00002435  00000+0  35989-3 0  9999
2 39161  97.8306 191.3157 0009307  27.1378 333.0317 14.76089458590386
POPACS 1                
1 39268U 13055D   24122.97111428  .00030697  00000+0  56540-3 0  9993
2 39268  80.9853 204.1156 0423000 240.8068 115.0216 14.88148806555121
POPACS 2                
1 39269U 13055E   24122.89899586  .00023475  00000+0  54244-3 0  9998
2 39269  81.0003 289.5856 0558149 104.0345 262.3532 14.55312547548866
POPACS 3                
1 39270U 13055F   24123.56871332  .00007487  00000+0  20930-3 0  9994
2 39270  81.0109 338.0602 0631886 239.9000 113.8113 14.35757636547112
ZACUBE-1 (TSHEPISOSAT)  
1 39417U 13066B   24123.15396408  .00005980  00000+0  63249-3 0  9996
2 39417  97.7304  80.1858 0049688 314.4163  45.2991 14.88646284564739
WNISAT-1                
1 39423U 13066H   24123.50080796  .00001661  00000+0  32502-3 0  9992
2 39423  97.6736 321.5287 0171064 152.3290 208.7143 14.55098639554009
TRITON-1                
1 39427U 13066M   24123.49565021  .00002609  00000+0  37571-3 0  9997
2 39427  97.8426  42.9685 0102128 228.6862 130.5524 14.73669450559672
DELFI-N3XT              
1 39428U 13066N   24122.75095250  .00014133  00000+0  18313-2 0  9995
2 39428  97.8414  42.3401 0100707 238.8755 120.2548 14.77381065559236
GOMX-1                  
1 39430U 13066Q   24123.46384871  .00003060  00000+0  51439-3 0  9991
2 39430  97.7390   0.6083 0141893  38.7044 322.4224 14.63834147556359
CUBEBUG-2 (LO-74)       
1 39440U 13066AA  24123.09720228  .00005020  00000+0  59996-3 0  9995
2 39440  97.8102  67.7887 0072484  65.4479 295.4267 14.82738977562703
NEE-02 KRYSAOR          
1 39441U 13066AB  24123.33008279  .00003323  00000+0  42761-3 0  9994
2 39441  97.8196  64.0593 0076671  85.1882 275.8079 14.79708852562315
FUNCUBE-1 (AO-73)       
1 39444U 13066AE  24122.86336744  .00006051  00000+0  59985-3 0  9992
2 39444  97.7162  82.9143 0046807 296.1780  63.4629 14.91340036563200
UWE-3                   
1 39446U 13066AG  24123.12157261  .00005740  00000+0  64865-3 0  9996
2 39446  97.7776  73.8738 0061565  12.7747 347.5011 14.85496007562455
BRITE-CA1 (TORONTO)     
1 40020U 14033L   24123.39433875  .00001694  00000+0  28151-3 0  9990
2 40020  97.8701 262.1535 0082398 237.8208 121.4987 14.69202420528258
DUCHIFAT-1              
1 40021U 14033M   24123.46566490  .00011790  00000+0  81670-3 0  9992
2 40021  98.0896 105.0095 0010631 249.8684 110.1397 15.05772221537246
NANOSATC-BR1            
1 40024U 14033Q   24123.19932458  .00010352  00000+0  79032-3 0  9998
2 40024  98.0604  93.4395 0005960 336.3807  23.7142 15.02172534536869
QB50P1                  
1 40025U 14033R   24123.16924958  .00008489  00000+0  70715-3 0  9999
2 40025  98.0389  82.4535 0007832 324.2832  35.7865 14.98880461536491
QB50P2                  
1 40032U 14033Y   24123.09885876  .00006155  00000+0  53077-3 0  9994
2 40032  98.0049  74.3714 0008378 320.3672  39.6936 14.97652923536295
PERSEUS-M2              
1 40037U 14033AD  24123.37122074  .00002442  00000+0  25772-3 0  9990
2 40037  97.9253  54.0135 0013009 354.0509   6.0552 14.90177686535503
PERSEUS-M1              
1 40039U 14033AF  24122.78490249  .00002302  00000+0  24473-3 0  9990
2 40039  97.9059  49.6130 0012877 355.2769   4.8325 14.89930808534770
POLYITAN-1              
1 40042U 14033AJ  24122.85181474  .00010395  00000+0  81135-3 0  9998
2 40042  98.0614  85.2892 0012506 294.8781  65.1141 15.01281244535882
TIGRISAT                
1 40043U 14033AK  24122.92451038  .00003233  00000+0  43669-3 0  9996
2 40043  97.6919 287.6764 0057013  94.4145 266.3583 14.78592683530629
AEROCUBE 6A             
1 40045U 14033AM  24123.04886685  .00006158  00000+0  74964-3 0  9993
2 40045  97.6688 298.3814 0052046  73.9179 286.7757 14.82795848531194
AEROCUBE 6B             
1 40046U 14033AN  24123.04405296  .00006409  00000+0  76485-3 0  9998
2 40046  97.6648 297.0419 0050617  69.6882 290.9762 14.83652307531380
UKUBE-1                 
1 40074U 14037F   24123.30723864  .00006264  00000+0  60920-3 0  9992
2 40074  98.3418  50.4456 0002991 198.0117 162.0995 14.92946340531937
BRITE-PL2 (HEWELIUSZ)   
1 40119U 14049B   24123.24418189  .00002750  00000+0  30095-3 0  9995
2 40119  97.8789 223.1372 0016729 152.1753 208.0361 14.88538637525830
CP10 (EXOCUBE)          
1 40380U 15003E   24122.75473739  .00134407  00000+0  99408-3 0  9991
2 40380  99.0977 135.1619 0040933 270.0099  89.6468 15.71376099512108
AEROCUBE 5C             
1 40965U 15058B   24123.19509828  .00004405  00000+0  41982-3 0  9996
2 40965  64.7690 142.8055 0188146 322.4066  36.4008 14.82233725250212
AEROCUBE 7              
1 40966U 15058C   24123.19891955  .00006174  00000+0  56351-3 0  9993
2 40966  64.7667 136.9745 0183540 322.0959  36.7342 14.83951739250304
BISONSAT                
1 40968U 15058E   24123.20111060  .00005383  00000+0  50051-3 0  9991
2 40968  64.7770 149.6651 0183187 317.2163  41.4805 14.83470517   993
SNAP-3 EDDIE            
1 40972U 15058J   24123.18560245  .00018574  00000+0  13339-2 0  9999
2 40972  64.7682 103.1318 0156529 316.3204  42.5607 14.94984967  1007
PROPCUBE 1 (FLORA)      
1 40976U 15058N   24122.83148112  .00003317  00000+0  33742-3 0  9999
2 40976  64.7755 168.3013 0186592 320.9196  37.8551 14.80476156   938
VELOX-II                
1 41171U 15077F   24122.93907498  .00103387  00000+0  12564-2 0  9995
2 41171  14.9888  59.9646 0001875 192.2907 167.7374 15.58692364464529
HORYU-4                 
1 41340U 16012D   24122.71485467  .00011273  00000+0  58159-3 0  9999
2 41340  31.0016 278.1919 0009273 219.3342 140.6624 15.15046873451099
E-ST@R-II               
1 41459U 16025D   24123.42934016  .02083827  46772-2  18227-2 0  9998
2 41459  98.1076  11.2251 0008639  56.4317 303.7790 16.14266405442464
RAVAN                   
1 41849U 16067B   24123.42966819  .00010577  00000+0  60250-3 0  9998
2 41849  98.0632 298.4761 0013770 181.2328 178.8870 15.12940237409068
CELTEE 1                
1 41850U 16067C   24123.39543679  .00006015  00000+0  41888-3 0  9999
2 41850  98.1004 290.5707 0001134  60.0432 300.0906 15.05856773408531
OPTICUBE 04             
1 41851U 16067D   24122.40376495  .00005160  00000+0  39432-3 0  9993
2 41851  98.0712 285.4089 0018277 212.1933 147.8176 15.02295808408219
AEROCUBE 8D             
1 41852U 16067E   24123.02157850  .00007736  00000+0  52198-3 0  9990
2 41852  98.1040 289.8145 0004446 258.4219 101.6508 15.06924269408445
AEROCUBE 8C             
1 41853U 16067F   24122.96724640  .00006866  00000+0  46434-3 0  9999
2 41853  98.0852 288.4528 0008249 188.2924 171.8167 15.06867024408427
PROMETHEUS 2-1          
1 41854U 16067G   24123.02775524  .00016352  00000+0  87493-3 0  9996
2 41854  98.0986 295.1360 0013480 212.1439 147.8971 15.15063460408749
PROMETHEUS 2-3          
1 41855U 16067H   24122.75919424  .00015946  00000+0  85438-3 0  9990
2 41855  98.0912 294.3837 0011371 222.1319 137.9038 15.15044333408702
DIDO-2                  
1 42000U 17008BE  24123.11394175  .00120737  00000+0  87710-3 0  9990
2 42000  97.1398 183.3268 0003216 253.4547 106.6364 15.73004872401523
